[
    {
        "Altitude(m)": 557914.1531837363,
        "Argument of Periapsis(deg)": 0.006622991110713501,
        "Eccentricity": 0.0,
        "Inclination(deg)": 53.0,
        "Latitude(deg)": 44.44992495758529,
        "Longitude(deg)": -3.4509370420659815,
        "Mean Anomaly(deg)": 61.00069286757756,
        "RAAN(deg)": 49.99014336852802,
        "Satellite Name": "Starlink Shell 1 223",
        "Satellite Number": 223,
        "Semi-Major Axis(m)": 6931778.249405717,
        "Time(s)": 190
    },
    {
        "Altitude(m)": 557990.0443123456,
        "Argument of Periapsis(deg)": 0.0069715695902247375,
        "Eccentricity": 0.0,
        "Inclination(deg)": 53.0,
        "Latitude(deg)": 44.787509494076254,
        "Longitude(deg)": -2.7513653322105904,
        "Mean Anomaly(deg)": 61.6275240711343,
        "RAAN(deg)": 49.98962459845054,
        "Satellite Name": "Starlink Shell 1 223",
        "Satellite Number": 223,
        "Semi-Major Axis(m)": 6931778.249405717,
        "Time(s)": 200
    },
    {
        "Altitude(m)": 558065.0335418067,
        "Argument of Periapsis(deg)": 0.007320148069735974,
        "Eccentricity": 0.0,
        "Inclination(deg)": 53.0,
        "Latitude(deg)": 45.12021324915116,
        "Longitude(deg)": -2.0431779391025153,
        "Mean Anomaly(deg)": 62.25435527469101,
        "RAAN(deg)": 49.98910582837308,
        "Satellite Name": "Starlink Shell 1 223",
        "Satellite Number": 223,
        "Semi-Major Axis(m)": 6931778.249405717,
        "Time(s)": 210
    },
    {
        "Altitude(m)": 558139.0740055948,
        "Argument of Periapsis(deg)": 0.007668726549247212,
        "Eccentricity": 0.0,
        "Inclination(deg)": 53.0,
        "Latitude(deg)": 45.447923429541184,
        "Longitude(deg)": -1.3263026988992117,
        "Mean Anomaly(deg)": 62.88118647824773,
        "RAAN(deg)": 49.9885870582956,
        "Satellite Name": "Starlink Shell 1 223",
        "Satellite Number": 223,
        "Semi-Major Axis(m)": 6931778.249405717,
        "Time(s)": 220
    },
    {
        "Altitude(m)": 558212.1195261865,
        "Argument of Periapsis(deg)": 0.00801730502875845,
        "Eccentricity": 0.0,
        "Inclination(deg)": 53.0,
        "Latitude(deg)": 45.77052569024596,
        "Longitude(deg)": -0.6006737420097672,
        "Mean Anomaly(deg)": 63.50801768180444,
        "RAAN(deg)": 49.98806828821812,
        "Satellite Name": "Starlink Shell 1 223",
        "Satellite Number": 223,
        "Semi-Major Axis(m)": 6931778.249405717,
        "Time(s)": 230
    },
    {
        "Altitude(m)": 558284.1246380666,
        "Argument of Periapsis(deg)": 0.008365883508269684,
        "Eccentricity": 0.0,
        "Inclination(deg)": 53.0,
        "Latitude(deg)": 46.08790420496897,
        "Longitude(deg)": 0.13376851270272253,
        "Mean Anomaly(deg)": 64.13484888536118,
        "RAAN(deg)": 49.98754951814066,
        "Satellite Name": "Starlink Shell 1 223",
        "Satellite Number": 223,
        "Semi-Major Axis(m)": 6931778.249405717,
        "Time(s)": 240
    },
    {
        "Altitude(m)": 558355.0446103921,
        "Argument of Periapsis(deg)": 0.008714461987780921,
        "Eccentricity": 0.0,
        "Inclination(deg)": 53.0,
        "Latitude(deg)": 46.39994174541241,
        "Longitude(deg)": 0.8770758365235573,
        "Mean Anomaly(deg)": 64.76168008891787,
        "RAAN(deg)": 49.987030748063184,
        "Satellite Name": "Starlink Shell 1 223",
        "Satellite Number": 223,
        "Semi-Major Axis(m)": 6931778.249405717,
        "Time(s)": 250
    },
    {
        "Altitude(m)": 558424.8354692212,
        "Argument of Periapsis(deg)": 0.009063040467292158,
        "Eccentricity": 0.0,
        "Inclination(deg)": 53.0,
        "Latitude(deg)": 46.70651976983568,
        "Longitude(deg)": 1.6292921694834008,
        "Mean Anomaly(deg)": 65.38851129247458,
        "RAAN(deg)": 49.98651197798571,
        "Satellite Name": "Starlink Shell 1 223",
        "Satellite Number": 223,
        "Semi-Major Axis(m)": 6931778.249405717,
        "Time(s)": 260
    },
    {
        "Altitude(m)": 558493.4540193966,
        "Argument of Periapsis(deg)": 0.009411618946803396,
        "Eccentricity": 0.0,
        "Inclination(deg)": 53.0,
        "Latitude(deg)": 47.007518521253814,
        "Longitude(deg)": 2.390453587772108,
        "Mean Anomaly(deg)": 66.01534249603131,
        "RAAN(deg)": 49.985993207908244,
        "Satellite Name": "Starlink Shell 1 223",
        "Satellite Number": 223,
        "Semi-Major Axis(m)": 6931778.249405717,
        "Time(s)": 270
    },
    {
        "Altitude(m)": 558560.8578659736,
        "Argument of Periapsis(deg)": 0.009760197426314633,
        "Eccentricity": 0.0,
        "Inclination(deg)": 53.0,
        "Latitude(deg)": 47.30281713562756,
        "Longitude(deg)": 3.160586749057744,
        "Mean Anomaly(deg)": 66.64217369958804,
        "RAAN(deg)": 49.98547443783077,
        "Satellite Name": "Starlink Shell 1 223",
        "Satellite Number": 223,
        "Semi-Major Axis(m)": 6931778.249405717,
        "Time(s)": 280
    },
    {
        "Altitude(m)": 558627.0054352742,
        "Argument of Periapsis(deg)": 0.01010877590582587,
        "Eccentricity": 0.0,
        "Inclination(deg)": 53.0,
        "Latitude(deg)": 47.5922937603758,
        "Longitude(deg)": 3.9397088436945533,
        "Mean Anomaly(deg)": 67.26900490314472,
        "RAAN(deg)": 49.98495566775329,
        "Satellite Name": "Starlink Shell 1 223",
        "Satellite Number": 223,
        "Semi-Major Axis(m)": 6931778.249405717,
        "Time(s)": 290
    },
    {
        "Altitude(m)": 558691.8559954646,
        "Argument of Periapsis(deg)": 0.010457354385337106,
        "Eccentricity": 0.0,
        "Inclination(deg)": 53.0,
        "Latitude(deg)": 47.87582568349505,
        "Longitude(deg)": 4.727827541470055,
        "Mean Anomaly(deg)": 67.89583610670145,
        "RAAN(deg)": 49.98443689767581,
        "Satellite Name": "Starlink Shell 1 223",
        "Satellite Number": 223,
        "Semi-Major Axis(m)": 6931778.249405717,
        "Time(s)": 300
    },
    {
        "Altitude(m)": 558755.3696767417,
        "Argument of Periapsis(deg)": 0.010805932864848343,
        "Eccentricity": 0.0,
        "Inclination(deg)": 53.0,
        "Latitude(deg)": 48.15328947352718,
        "Longitude(deg)": 5.524939423836049,
        "Mean Anomaly(deg)": 68.52266731025814,
        "RAAN(deg)": 49.983918127598336,
        "Satellite Name": "Starlink Shell 1 223",
        "Satellite Number": 223,
        "Semi-Major Axis(m)": 6931778.249405717,
        "Time(s)": 310
    },
    {
        "Altitude(m)": 558817.5074910531,
        "Argument of Periapsis(deg)": 0.01115451134435958,
        "Eccentricity": 0.0,
        "Inclination(deg)": 53.0,
        "Latitude(deg)": 48.42456113057622,
        "Longitude(deg)": 6.3310299304844,
        "Mean Anomaly(deg)": 69.1494985138149,
        "RAAN(deg)": 49.983399357520874,
        "Satellite Name": "Starlink Shell 1 223",
        "Satellite Number": 223,
        "Semi-Major Axis(m)": 6931778.249405717,
        "Time(s)": 320
    },
    {
        "Altitude(m)": 558878.2313513677,
        "Argument of Periapsis(deg)": 0.011503089823870818,
        "Eccentricity": 0.0,
        "Inclination(deg)": 53.0,
        "Latitude(deg)": 48.68951624850659,
        "Longitude(deg)": 7.146073310803475,
        "Mean Anomaly(deg)": 69.77632971737158,
        "RAAN(deg)": 49.9828805874434,
        "Satellite Name": "Starlink Shell 1 223",
        "Satellite Number": 223,
        "Semi-Major Axis(m)": 6931778.249405717,
        "Time(s)": 330
    },
    {
        "Altitude(m)": 558937.50409048,
        "Argument of Periapsis(deg)": 0.011851668303382053,
        "Eccentricity": 0.0,
        "Inclination(deg)": 53.0,
        "Latitude(deg)": 48.948030188392856,
        "Longitude(deg)": 7.970031071049537,
        "Mean Anomaly(deg)": 70.4031609209283,
        "RAAN(deg)": 49.98236181736592,
        "Satellite Name": "Starlink Shell 1 223",
        "Satellite Number": 223,
        "Semi-Major Axis(m)": 6931778.249405717,
        "Time(s)": 340
    },
    {
        "Altitude(m)": 558995.289479357,
        "Argument of Periapsis(deg)": 0.012200246782893292,
        "Eccentricity": 0.0,
        "Inclination(deg)": 53.0,
        "Latitude(deg)": 49.19997826322471,
        "Longitude(deg)": 8.802851946963509,
        "Mean Anomaly(deg)": 71.02999212448502,
        "RAAN(deg)": 49.98184304728846,
        "Satellite Name": "Starlink Shell 1 223",
        "Satellite Number": 223,
        "Semi-Major Axis(m)": 6931778.249405717,
        "Time(s)": 350
    },
    {
        "Altitude(m)": 559051.5522450027,
        "Argument of Periapsis(deg)": 0.012548825262404526,
        "Eccentricity": 0.0,
        "Inclination(deg)": 53.0,
        "Latitude(deg)": 49.44523593378433,
        "Longitude(deg)": 9.644471893220164,
        "Mean Anomaly(deg)": 71.65682332804172,
        "RAAN(deg)": 49.98132427721098,
        "Satellite Name": "Starlink Shell 1 223",
        "Satellite Number": 223,
        "Semi-Major Axis(m)": 6931778.249405717,
        "Time(s)": 360
    },
    {
        "Altitude(m)": 559106.2580878295,
        "Argument of Periapsis(deg)": 0.012897403741915765,
        "Eccentricity": 0.0,
        "Inclination(deg)": 53.0,
        "Latitude(deg)": 49.68367901552517,
        "Longitude(deg)": 10.494812581341222,
        "Mean Anomaly(deg)": 72.28365453159847,
        "RAAN(deg)": 49.9808055071335,
        "Satellite Name": "Starlink Shell 1 223",
        "Satellite Number": 223,
        "Semi-Major Axis(m)": 6931778.249405717,
        "Time(s)": 370
    }
]